[{"OBJECT_NAME":"UFO 10 (USA 146)","OBJECT_ID":"1999-063A","EPOCH":"2026-04-27T01:56:38.566752","MEAN_MOTION":1.00272423,"ECCENTRICITY":0.0004218,"INCLINATION":9.8472,"RA_OF_ASC_NODE":27.4738,"ARG_OF_PERICENTER":37.0885,"MEAN_ANOMALY":156.8905,"EPHEMERIS_TYPE":0,"CLASSIFICATION_TYPE":"U","NORAD_CAT_ID":25967,"ELEMENT_SET_NO":999,"REV_AT_EPOCH":9683,"BSTAR":0,"MEAN_MOTION_DOT":-1.95e-6,"MEAN_MOTION_DDOT":0},{"OBJECT_NAME":"ASIASTAR","OBJECT_ID":"2000-016A","EPOCH":"2026-04-26T19:11:55.077792","MEAN_MOTION":1.00274143,"ECCENTRICITY":0.00050167,"INCLINATION":9.0129,"RA_OF_ASC_NODE":58.6966,"ARG_OF_PERICENTER":18.4141,"MEAN_ANOMALY":170.6243,"EPHEMERIS_TYPE":0,"CLASSIFICATION_TYPE":"U","NORAD_CAT_ID":26107,"ELEMENT_SET_NO":999,"REV_AT_EPOCH":9540,"BSTAR":0,"MEAN_MOTION_DOT":-3.4e-6,"MEAN_MOTION_DDOT":0},{"OBJECT_NAME":"TDRS 8","OBJECT_ID":"2000-034A","EPOCH":"2026-04-26T21:38:29.573952","MEAN_MOTION":1.00276985,"ECCENTRICITY":0.000623,"INCLINATION":12.6047,"RA_OF_ASC_NODE":31.7524,"ARG_OF_PERICENTER":344.7779,"MEAN_ANOMALY":247.6634,"EPHEMERIS_TYPE":0,"CLASSIFICATION_TYPE":"U","NORAD_CAT_ID":26388,"ELEMENT_SET_NO":999,"REV_AT_EPOCH":9466,"BSTAR":0,"MEAN_MOTION_DOT":-2.02e-6,"MEAN_MOTION_DDOT":0},{"OBJECT_NAME":"NSS-11","OBJECT_ID":"2000-059A","EPOCH":"2026-04-26T21:14:58.049376","MEAN_MOTION":1.0027271,"ECCENTRICITY":0.0002864,"INCLINATION":1.996,"RA_OF_ASC_NODE":81.9605,"ARG_OF_PERICENTER":314.9686,"MEAN_ANOMALY":312.6911,"EPHEMERIS_TYPE":0,"CLASSIFICATION_TYPE":"U","NORAD_CAT_ID":26554,"ELEMENT_SET_NO":999,"REV_AT_EPOCH":4077,"BSTAR":0,"MEAN_MOTION_DOT":1.6e-7,"MEAN_MOTION_DDOT":0},{"OBJECT_NAME":"USA 153","OBJECT_ID":"2000-065A","EPOCH":"2026-04-26T16:18:05.605920","MEAN_MOTION":1.00268788,"ECCENTRICITY":0.00036603,"INCLINATION":11.5394,"RA_OF_ASC_NODE":35.8442,"ARG_OF_PERICENTER":30.0567,"MEAN_ANOMALY":167.7661,"EPHEMERIS_TYPE":0,"CLASSIFICATION_TYPE":"U","NORAD_CAT_ID":26575,"ELEMENT_SET_NO":999,"REV_AT_EPOCH":3241,"BSTAR":0,"MEAN_MOTION_DOT":-3.32e-6,"MEAN_MOTION_DDOT":0},{"OBJECT_NAME":"AMC-6","OBJECT_ID":"2000-067A","EPOCH":"2026-04-26T17:26:34.567008","MEAN_MOTION":1.00274255,"ECCENTRICITY":0.00039698,"INCLINATION":0.0764,"RA_OF_ASC_NODE":69.2678,"ARG_OF_PERICENTER":343.734,"MEAN_ANOMALY":288.36,"EPHEMERIS_TYPE":0,"CLASSIFICATION_TYPE":"U","NORAD_CAT_ID":26580,"ELEMENT_SET_NO":999,"REV_AT_EPOCH":9337,"BSTAR":0,"MEAN_MOTION_DOT":7.6e-7,"MEAN_MOTION_DDOT":0},{"OBJECT_NAME":"USA 157 (MILSTAR-2 2)","OBJECT_ID":"2001-009A","EPOCH":"2026-04-27T03:59:37.246848","MEAN_MOTION":1.00277258,"ECCENTRICITY":0.0037533,"INCLINATION":11.4886,"RA_OF_ASC_NODE":20.0827,"ARG_OF_PERICENTER":181.0991,"MEAN_ANOMALY":283.8782,"EPHEMERIS_TYPE":0,"CLASSIFICATION_TYPE":"U","NORAD_CAT_ID":26715,"ELEMENT_SET_NO":999,"REV_AT_EPOCH":3243,"BSTAR":0,"MEAN_MOTION_DOT":1.01e-6,"MEAN_MOTION_DDOT":0},{"OBJECT_NAME":"USA 159 (DSP 21)","OBJECT_ID":"2001-033A","EPOCH":"2026-04-26T21:31:21.144000","MEAN_MOTION":0.99198225,"ECCENTRICITY":2.7e-5,"INCLINATION":12.7349,"RA_OF_ASC_NODE":16.7885,"ARG_OF_PERICENTER":46.3124,"MEAN_ANOMALY":221.732,"EPHEMERIS_TYPE":0,"CLASSIFICATION_TYPE":"U","NORAD_CAT_ID":26880,"ELEMENT_SET_NO":999,"REV_AT_EPOCH":3244,"BSTAR":0,"MEAN_MOTION_DOT":-1.79e-6,"MEAN_MOTION_DDOT":0},{"OBJECT_NAME":"INTELSAT 902 (IS-902)","OBJECT_ID":"2001-039A","EPOCH":"2026-04-26T21:47:38.620032","MEAN_MOTION":1.00270761,"ECCENTRICITY":0.0004515,"INCLINATION":5.9893,"RA_OF_ASC_NODE":72.3941,"ARG_OF_PERICENTER":320.0211,"MEAN_ANOMALY":99.3035,"EPHEMERIS_TYPE":0,"CLASSIFICATION_TYPE":"U","NORAD_CAT_ID":26900,"ELEMENT_SET_NO":999,"REV_AT_EPOCH":9018,"BSTAR":0,"MEAN_MOTION_DOT":-2.9e-6,"MEAN_MOTION_DDOT":0},{"OBJECT_NAME":"USA 164 (MILSTAR-2 3)","OBJECT_ID":"2002-001A","EPOCH":"2026-04-26T21:30:16.221312","MEAN_MOTION":1.00268067,"ECCENTRICITY":0.0099807,"INCLINATION":11.1204,"RA_OF_ASC_NODE":22.2195,"ARG_OF_PERICENTER":6.5335,"MEAN_ANOMALY":167.6652,"EPHEMERIS_TYPE":0,"CLASSIFICATION_TYPE":"U","NORAD_CAT_ID":27168,"ELEMENT_SET_NO":999,"REV_AT_EPOCH":3244,"BSTAR":0,"MEAN_MOTION_DOT":8.8e-7,"MEAN_MOTION_DDOT":0},{"OBJECT_NAME":"INTELSAT 904 (IS-904)","OBJECT_ID":"2002-007A","EPOCH":"2026-04-26T16:50:21.696864","MEAN_MOTION":1.00269764,"ECCENTRICITY":0.00077474,"INCLINATION":6.7944,"RA_OF_ASC_NODE":69.7905,"ARG_OF_PERICENTER":338.929,"MEAN_ANOMALY":27.0697,"EPHEMERIS_TYPE":0,"CLASSIFICATION_TYPE":"U","NORAD_CAT_ID":27380,"ELEMENT_SET_NO":999,"REV_AT_EPOCH":5125,"BSTAR":0,"MEAN_MOTION_DOT":-2.33e-6,"MEAN_MOTION_DDOT":0},{"OBJECT_NAME":"DIRECTV 5 (TEMPO 1)","OBJECT_ID":"2002-023A","EPOCH":"2026-04-27T05:01:51.511008","MEAN_MOTION":1.00272048,"ECCENTRICITY":0.0003499,"INCLINATION":4.75,"RA_OF_ASC_NODE":75.9287,"ARG_OF_PERICENTER":323.3824,"MEAN_ANOMALY":141.247,"EPHEMERIS_TYPE":0,"CLASSIFICATION_TYPE":"U","NORAD_CAT_ID":27426,"ELEMENT_SET_NO":999,"REV_AT_EPOCH":8761,"BSTAR":0,"MEAN_MOTION_DOT":-6.3e-7,"MEAN_MOTION_DDOT":0},{"OBJECT_NAME":"INTELSAT 905 (IS-905)","OBJECT_ID":"2002-027A","EPOCH":"2026-04-27T00:53:37.078080","MEAN_MOTION":1.00273783,"ECCENTRICITY":0.0003493,"INCLINATION":6.628,"RA_OF_ASC_NODE":70.4041,"ARG_OF_PERICENTER":339.7055,"MEAN_ANOMALY":41.1333,"EPHEMERIS_TYPE":0,"CLASSIFICATION_TYPE":"U","NORAD_CAT_ID":27438,"ELEMENT_SET_NO":999,"REV_AT_EPOCH":5085,"BSTAR":0,"MEAN_MOTION_DOT":8.8e-7,"MEAN_MOTION_DDOT":0},{"OBJECT_NAME":"GALAXY 3C (G-3C)","OBJECT_ID":"2002-030A","EPOCH":"2026-04-27T04:22:24.291840","MEAN_MOTION":1.00271753,"ECCENTRICITY":0.0001613,"INCLINATION":3.6002,"RA_OF_ASC_NODE":78.6573,"ARG_OF_PERICENTER":24.7309,"MEAN_ANOMALY":82.5201,"EPHEMERIS_TYPE":0,"CLASSIFICATION_TYPE":"U","NORAD_CAT_ID":27445,"ELEMENT_SET_NO":999,"REV_AT_EPOCH":4598,"BSTAR":0,"MEAN_MOTION_DOT":-1.6e-6,"MEAN_MOTION_DDOT":0},{"OBJECT_NAME":"INTELSAT 906 (IS-906)","OBJECT_ID":"2002-041A","EPOCH":"2026-04-27T00:08:18.921984","MEAN_MOTION":1.00270668,"ECCENTRICITY":0.000404,"INCLINATION":5.6741,"RA_OF_ASC_NODE":73.5351,"ARG_OF_PERICENTER":336.0928,"MEAN_ANOMALY":231.6081,"EPHEMERIS_TYPE":0,"CLASSIFICATION_TYPE":"U","NORAD_CAT_ID":27513,"ELEMENT_SET_NO":999,"REV_AT_EPOCH":8651,"BSTAR":0,"MEAN_MOTION_DOT":7.0e-8,"MEAN_MOTION_DDOT":0},{"OBJECT_NAME":"NIMIQ 2","OBJECT_ID":"2002-062A","EPOCH":"2026-04-26T21:36:11.014272","MEAN_MOTION":1.00273037,"ECCENTRICITY":0.0006387,"INCLINATION":9.331,"RA_OF_ASC_NODE":57.4351,"ARG_OF_PERICENTER":334.5732,"MEAN_ANOMALY":37.7739,"EPHEMERIS_TYPE":0,"CLASSIFICATION_TYPE":"U","NORAD_CAT_ID":27632,"ELEMENT_SET_NO":999,"REV_AT_EPOCH":4367,"BSTAR":0,"MEAN_MOTION_DOT":-7.6e-7,"MEAN_MOTION_DDOT":0}]
