UFO 10 (USA 146)        
1 25967U 99063A   26117.08100194 -.00000195  00000+0  00000+0 0  9990
2 25967   9.8472  27.4738 0004217  37.0885 156.8905  1.00272423 96838
ASIASTAR                
1 26107U 00016A   26116.79994303 -.00000340  00000+0  00000+0 0  9999
2 26107   9.0129  58.6966 0005016  18.4141 170.6243  1.00274143 95403
TDRS 8                  
1 26388U 00034A   26116.90173118 -.00000202  00000+0  00000+0 0  9993
2 26388  12.6047  31.7524 0006230 344.7779 247.6634  1.00276985 94668
NSS-11                  
1 26554U 00059A   26116.88539409  .00000016  00000+0  00000+0 0  9993
2 26554   1.9960  81.9605 0002864 314.9686 312.6911  1.00272710 40776
USA 153                 
1 26575U 00065A   26116.67923155 -.00000332  00000+0  00000+0 0  9997
2 26575  11.5394  35.8442 0003660  30.0567 167.7661  1.00268788 32416
AMC-6                   
1 26580U 00067A   26116.72678897  .00000076  00000+0  00000+0 0  9995
2 26580   0.0764  69.2678 0003969 343.7340 288.3600  1.00274255 93374
USA 157 (MILSTAR-2 2)   
1 26715U 01009A   26117.16640333  .00000101  00000+0  00000+0 0  9994
2 26715  11.4886  20.0827 0037533 181.0991 283.8782  1.00277258 32432
USA 159 (DSP 21)        
1 26880U 01033A   26116.89677250 -.00000179  00000+0  00000+0 0  9997
2 26880  12.7349  16.7885 0000270  46.3124 221.7320  0.99198225 32441
INTELSAT 902 (IS-902)   
1 26900U 01039A   26116.90808589 -.00000290  00000+0  00000+0 0  9993
2 26900   5.9893  72.3941 0004515 320.0211  99.3035  1.00270761 90184
USA 164 (MILSTAR-2 3)   
1 27168U 02001A   26116.89602108  .00000088  00000+0  00000+0 0  9991
2 27168  11.1204  22.2195 0099807   6.5335 167.6652  1.00268067 32447
INTELSAT 904 (IS-904)   
1 27380U 02007A   26116.70164001 -.00000233  00000+0  00000+0 0  9991
2 27380   6.7944  69.7905 0007747 338.9290  27.0697  1.00269764 51256
DIRECTV 5 (TEMPO 1)     
1 27426U 02023A   26117.20962398 -.00000063  00000+0  00000+0 0  9992
2 27426   4.7500  75.9287 0003499 323.3824 141.2470  1.00272048 87612
INTELSAT 905 (IS-905)   
1 27438U 02027A   26117.03723470  .00000088  00000+0  00000+0 0  9992
2 27438   6.6280  70.4041 0003493 339.7055  41.1333  1.00273783 50859
GALAXY 3C (G-3C)        
1 27445U 02030A   26117.18222561 -.00000160  00000+0  00000+0 0  9997
2 27445   3.6002  78.6573 0001612  24.7309  82.5201  1.00271753 45986
INTELSAT 906 (IS-906)   
1 27513U 02041A   26117.00577457  .00000007  00000+0  00000+0 0  9992
2 27513   5.6741  73.5351 0004039 336.0928 231.6081  1.00270668 86515
NIMIQ 2                 
1 27632U 02062A   26116.90012748 -.00000076  00000+0  00000+0 0  9999
2 27632   9.3310  57.4351 0006387 334.5732  37.7739  1.00273037 43673
